{"type": "FeatureCollection", "features": [{"type": "Feature", "properties": {"osm_way_id": 39997501, "name": "\u0637\u0631\u064a\u0642 \u062c\u062f\u0629 - \u0645\u0643\u0629 \u0627\u0644\u0633\u0631\u064a\u0639", "ref": "40"}, "geometry": {"type": "LineString", "coordinates": [[39.4475993, 21.3838851], [39.4462695, 21.3845048], [39.4425518, 21.3862508], [39.4411319, 21.3869219], [39.4405033, 21.3871843], [39.4394411, 21.387588], [39.4382001, 21.388027], [39.4372191, 21.3882995], [39.4361624, 21.3885568], [39.4352736, 21.3887284], [39.4344065, 21.3888647], [39.4337751, 21.3889417], [39.433496, 21.3889757], [39.4322225, 21.3890917], [39.4306996, 21.3891422], [39.4292256, 21.3891674], [39.4232751, 21.3892381], [39.4218862, 21.3892601], [39.4213621, 21.3892684], [39.4203595, 21.3893239], [39.4196712, 21.3894147], [39.4189559, 21.3895358], [39.4182893, 21.3897225], [39.417471, 21.3899748], [39.4166635, 21.3902776], [39.4158993, 21.3906308], [39.4149726, 21.3911253], [39.4142356, 21.3915996], [39.4134281, 21.3922253], [39.4128482, 21.3927653], [39.412393, 21.3932648], [39.4117969, 21.3939258], [39.4102578, 21.3956414], [39.4082851, 21.397907], [39.4056795, 21.4008448], [39.4055104, 21.4010354], [39.4048005, 21.4017721], [39.4041122, 21.4023675], [39.4034023, 21.4028872], [39.4025731, 21.4033816], [39.4017873, 21.403755], [39.4011099, 21.4039921], [39.4003729, 21.4042091], [39.3997659, 21.4043453], [39.3991264, 21.4044563], [39.3983297, 21.404527], [39.3977878, 21.4045421], [39.3972513, 21.404532], [39.3966226, 21.4044816], [39.3959669, 21.4043857], [39.3953166, 21.4042495], [39.3945308, 21.4040426], [39.3936854, 21.4037954], [39.3925527, 21.4034069], [39.3859953, 21.4011716], [39.3829442, 21.4001625], [39.3820283, 21.3998951], [39.3811883, 21.3996976], [39.3798499, 21.3995505], [39.3791621, 21.3995245], [39.3785115, 21.3995389], [39.377864, 21.3995649], [39.3767952, 21.3997033], [39.3762468, 21.3998014], [39.3757468, 21.3999342], [39.3751556, 21.400094], [39.374572, 21.4002929], [39.373954, 21.4005415], [39.3733132, 21.4008114], [39.3726609, 21.401163], [39.3720124, 21.4015395], [39.3713334, 21.4020083], [39.3706922, 21.4024968], [39.3700071, 21.4031819], [39.3698915, 21.4032975], [39.3692888, 21.403958], [39.3687226, 21.4046354], [39.3677326, 21.4057783], [39.3656587, 21.4083045], [39.3622811, 21.4124189], [39.3614196, 21.4133091], [39.3602557, 21.414334], [39.3596329, 21.4147499], [39.3589094, 21.4151833], [39.3582991, 21.4155171], [39.357519, 21.4158861], [39.3567955, 21.4161496], [39.3559525, 21.4164366], [39.3551976, 21.4166182], [39.3544301, 21.4167646], [39.3537317, 21.4168642], [39.3527126, 21.4169344], [39.3518695, 21.4169579], [39.3509825, 21.4168934], [39.3502703, 21.4168109], [39.3474674, 21.416346]]}}, {"type": "Feature", "properties": {"osm_way_id": 41426901, "name": "\u0637\u0631\u064a\u0642 \u062c\u062f\u0629 - \u0645\u0643\u0629 \u0627\u0644\u0633\u0631\u064a\u0639", "ref": "40"}, "geometry": {"type": "LineString", "coordinates": [[39.3472976, 21.4159967], [39.3500365, 21.4164743], [39.3510182, 21.4166363], [39.3527332, 21.4166973], [39.3544048, 21.416494], [39.3558158, 21.4161687], [39.3568729, 21.4158048], [39.357292, 21.4156605], [39.3588116, 21.4148474], [39.3598319, 21.4141563], [39.3611501, 21.413092], [39.362103, 21.4120656], [39.3625537, 21.4115252], [39.3630052, 21.4109839], [39.3653372, 21.4081711], [39.3674208, 21.4056457], [39.3684612, 21.4043782], [39.3684803, 21.4043554], [39.3695229, 21.4031585], [39.3699755, 21.4026937], [39.3704828, 21.4022285], [39.3711809, 21.40171], [39.371898, 21.401227], [39.3725197, 21.4008612], [39.3731682, 21.4005238], [39.3738052, 21.4002432], [39.3744385, 21.4000017], [39.3750479, 21.3998113], [39.3756744, 21.3996359], [39.3777849, 21.3992754], [39.3791742, 21.3992348], [39.3806287, 21.3993567], [39.3808769, 21.399399], [39.3812781, 21.3994674], [39.3816, 21.3995257], [39.3821266, 21.399621], [39.3829972, 21.3998696], [39.3832093, 21.3999394], [39.3861109, 21.4008945], [39.3926288, 21.4030987], [39.3937362, 21.4034685], [39.3945306, 21.4037375], [39.3953069, 21.403956], [39.395981, 21.4040961], [39.3966309, 21.4041969], [39.3972749, 21.4042361], [39.3977684, 21.404253], [39.39831, 21.4042417], [39.3990623, 21.4041689], [39.3996822, 21.4040793], [39.4003081, 21.4039392], [39.4009882, 21.4037375], [39.4016863, 21.4034797], [39.4024265, 21.4031155], [39.4032269, 21.4026336], [39.403907, 21.4021405], [39.4045931, 21.4015522], [39.4052852, 21.4008406], [39.4080777, 21.3976971], [39.4099915, 21.3954669], [39.4102236, 21.3952011], [39.4108822, 21.3944471], [39.4115682, 21.393685], [39.4121099, 21.3930686], [39.4125853, 21.3925867], [39.4132233, 21.3920207], [39.4140658, 21.3913651], [39.4148301, 21.390844], [39.4157028, 21.3903732], [39.4165092, 21.390009], [39.4173217, 21.389684], [39.4177681, 21.3895493], [39.4181943, 21.3894206], [39.4188563, 21.3892469], [39.4196207, 21.3891012], [39.4203368, 21.3889947], [39.4213118, 21.3889331], [39.4219325, 21.3889261], [39.4229156, 21.388915], [39.4232918, 21.3889107], [39.4291656, 21.3888546], [39.4306401, 21.3888434], [39.4321627, 21.3888042], [39.4329997, 21.3887282], [39.4333964, 21.3886921], [39.4343413, 21.3885744], [39.4351899, 21.38844], [39.4360806, 21.3882718], [39.4371338, 21.3880197], [39.4380967, 21.3877283], [39.4393365, 21.3873192], [39.4403656, 21.3869101], [39.4410035, 21.3866467], [39.4424178, 21.3859855], [39.4461311, 21.3842427], [39.4474652, 21.3836153]]}}, {"type": "Feature", "properties": {"osm_way_id": 43172320, "name": "Makkah-Jeddah Expressway", "ref": "40"}, "geometry": {"type": "LineString", "coordinates": [[39.2595964, 21.449119], [39.258351, 21.4492037]]}}, {"type": "Feature", "properties": {"osm_way_id": 43172335, "name": "Jeddah-Makkah Expressway", "ref": "40"}, "geometry": {"type": "LineString", "coordinates": [[39.2582675, 21.4489618], [39.2595635, 21.448874]]}}, {"type": "Feature", "properties": {"osm_way_id": 43172336, "name": "\u0637\u0631\u064a\u0642 \u062c\u062f\u0629 - \u0645\u0643\u0629 \u0627\u0644\u0633\u0631\u064a\u0639", "ref": "40"}, "geometry": {"type": "LineString", "coordinates": [[39.2595635, 21.448874], [39.2616234, 21.4487811], [39.2626507, 21.448688], [39.2630486, 21.4486489], [39.2640683, 21.4484911], [39.2652121, 21.4482161], [39.2657294, 21.4480287], [39.266878, 21.4475872], [39.2682027, 21.446787], [39.2695822, 21.4459256], [39.2709855, 21.4450369], [39.2720455, 21.4444387], [39.273215, 21.4438625], [39.2741977, 21.4435619]]}}, {"type": "Feature", "properties": {"osm_way_id": 161923576, "name": "\u0637\u0631\u064a\u0642 \u062c\u062f\u0629 - \u0645\u0643\u0629 \u0627\u0644\u0633\u0631\u064a\u0639", "ref": "40"}, "geometry": {"type": "LineString", "coordinates": [[39.274246, 21.4438845], [39.2732171, 21.4441621], [39.2715177, 21.4450109], [39.2690391, 21.4466531], [39.2669697, 21.4478609], [39.2655125, 21.4484049], [39.2645366, 21.4486609], [39.2634507, 21.4488518], [39.2623866, 21.4489653], [39.260027, 21.4490897], [39.2595964, 21.449119]]}}, {"type": "Feature", "properties": {"osm_way_id": 161923577, "name": "\u0637\u0631\u064a\u0642 \u062c\u062f\u0629 - \u0645\u0643\u0629 \u0627\u0644\u0633\u0631\u064a\u0639", "ref": "40"}, "geometry": {"type": "LineString", "coordinates": [[39.2741977, 21.4435619], [39.2752592, 21.4432602]]}}, {"type": "Feature", "properties": {"osm_way_id": 161923580, "name": "\u0637\u0631\u064a\u0642 \u062c\u062f\u0629 - \u0645\u0643\u0629 \u0627\u0644\u0633\u0631\u064a\u0639", "ref": "40"}, "geometry": {"type": "LineString", "coordinates": [[39.2752654, 21.4435607], [39.274246, 21.4438845]]}}, {"type": "Feature", "properties": {"osm_way_id": 172518953, "name": "\u0637\u0631\u064a\u0642 \u062c\u062f\u0629 - \u0645\u0643\u0629 \u0627\u0644\u0633\u0631\u064a\u0639", "ref": "40"}, "geometry": {"type": "LineString", "coordinates": [[39.6170998, 21.3518089], [39.6182354, 21.351823], [39.6217481, 21.3519291], [39.6231139, 21.3519535], [39.6240272, 21.3519983], [39.6250467, 21.3520385], [39.6354044, 21.3522166], [39.6367184, 21.3522659], [39.6457912, 21.3524716], [39.6469099, 21.3525218], [39.6476041, 21.3525908], [39.6482915, 21.3526724], [39.6491676, 21.3528043], [39.6498685, 21.3529486], [39.6507109, 21.3531495], [39.6515197, 21.353388], [39.6524093, 21.353683], [39.6534404, 21.354091], [39.6542019, 21.3544362], [39.6550242, 21.3548567], [39.6558396, 21.3553087], [39.6572728, 21.3562054], [39.6599479, 21.3578789], [39.6608419, 21.3584592], [39.6618986, 21.3591089], [39.6628099, 21.3596891], [39.6632419, 21.3599641], [39.6640389, 21.3604715], [39.666644, 21.3620809], [39.6703986, 21.3644535], [39.6705532, 21.3645513], [39.6719172, 21.365414], [39.6729476, 21.3660622], [39.6741146, 21.3667867], [39.6752474, 21.3674985], [39.6762847, 21.3681149], [39.6772879, 21.3686996], [39.6783593, 21.3692779], [39.6798743, 21.3700977], [39.6870795, 21.3739416], [39.688261, 21.3745719], [39.6915204, 21.3763158], [39.69421, 21.3777549], [39.6950569, 21.3782118], [39.695848, 21.3786592], [39.6966273, 21.3791612], [39.6972836, 21.3796032], [39.6982095, 21.3802962], [39.6989934, 21.3809158], [39.699545, 21.3814222], [39.6997798, 21.3816464], [39.7009619, 21.3828351], [39.7016409, 21.3835993], [39.7021663, 21.3842645], [39.702664, 21.3848778], [39.7029692, 21.385254], [39.7059158, 21.3890766], [39.7084508, 21.3923138], [39.7094398, 21.3935767], [39.7110168, 21.3956312], [39.7169514, 21.4032521], [39.7184958, 21.4052353], [39.7193674, 21.4063315], [39.7211216, 21.4085376], [39.7216791, 21.4092388], [39.7221104, 21.4097162], [39.7226383, 21.4101836], [39.7237494, 21.4109839], [39.7249556, 21.4116106], [39.7256287, 21.4118619], [39.7264125, 21.412101], [39.7273329, 21.4122585], [39.7280858, 21.4123145], [39.7286761, 21.4123402], [39.730049, 21.4123069], [39.730848, 21.4122332], [39.7364763, 21.4117137], [39.7372059, 21.4116379], [39.7422699, 21.4112144], [39.7432458, 21.4111835], [39.7442724, 21.4112303]]}}, {"type": "Feature", "properties": {"osm_way_id": 174349540, "name": "\u0637\u0631\u064a\u0642 \u062c\u062f\u0629 - \u0645\u0643\u0629 \u0627\u0644\u0633\u0631\u064a\u0639", "ref": "40"}, "geometry": {"type": "LineString", "coordinates": [[39.7758268, 21.418253], [39.7747544, 21.4175366], [39.7744637, 21.4173292], [39.7739358, 21.4169526], [39.7723892, 21.4160312], [39.7711842, 21.4154825], [39.7711278, 21.4154568], [39.7709274, 21.4153656], [39.7700691, 21.415097], [39.7693598, 21.414875], [39.7678357, 21.4145505], [39.7665651, 21.4144126], [39.7656147, 21.4143719], [39.764125, 21.4143127], [39.7608549, 21.4141724], [39.7607733, 21.4141689], [39.7595744, 21.4141436], [39.7585207, 21.4141013], [39.7572763, 21.4140252], [39.756586, 21.4139491], [39.7557685, 21.4138307], [39.7548057, 21.4136954], [39.7540518, 21.4135432], [39.7528982, 21.4133149], [39.752134, 21.4131515], [39.751672, 21.4130527], [39.7501498, 21.4127481], [39.7489104, 21.4125064], [39.7469851, 21.4120464], [39.7457589, 21.4118097], [39.7442183, 21.4116022], [39.743276, 21.4115347], [39.7417784, 21.4115631], [39.7416261, 21.411566], [39.7393836, 21.4118312], [39.7371123, 21.4120102], [39.7345778, 21.4122207], [39.7318194, 21.4124558], [39.7300622, 21.4125958], [39.7289186, 21.4126638], [39.7283966, 21.412652], [39.7274712, 21.4125721], [39.7267652, 21.4124744], [39.7261068, 21.4122879], [39.7254771, 21.4120836], [39.7247043, 21.4117993], [39.7239697, 21.4114174], [39.7233495, 21.411071], [39.722653, 21.4105558], [39.7219375, 21.4099873], [39.7210825, 21.4091506], [39.7199044, 21.4076292], [39.7183892, 21.4056587], [39.718207, 21.4054217], [39.7163756, 21.4030932], [39.7095569, 21.3943069], [39.7091538, 21.3937896], [39.7055714, 21.389192], [39.7043374, 21.3875835], [39.702682, 21.3854256], [39.7019628, 21.384491], [39.7014099, 21.3838212], [39.700739, 21.3830915], [39.7000627, 21.3823668], [39.6993058, 21.3816571], [39.6988013, 21.3811973], [39.6980338, 21.3805625], [39.6971105, 21.3798878], [39.6964289, 21.3794229], [39.6956882, 21.3789281], [39.6949045, 21.3784733], [39.6940511, 21.3780135], [39.6880914, 21.3748174], [39.6797351, 21.3703553], [39.6782022, 21.369545], [39.6771287, 21.3689618], [39.6761407, 21.3683901], [39.6750835, 21.3677653], [39.6739531, 21.367061], [39.672778, 21.366315], [39.6717371, 21.3656599], [39.6704967, 21.3648885], [39.6664822, 21.362375], [39.6629758, 21.360146], [39.6617638, 21.3593864], [39.660659, 21.3586979], [39.6597431, 21.3581241], [39.6556828, 21.3555682], [39.6548883, 21.3551212], [39.6540897, 21.3547127], [39.6533366, 21.3543697], [39.652331, 21.3539881], [39.6513876, 21.3536644], [39.6506262, 21.3534447], [39.6497944, 21.3532482], [39.6491075, 21.3531133], [39.6482427, 21.352963], [39.6475847, 21.3528859], [39.6468854, 21.3528204], [39.6457764, 21.3527587], [39.6366765, 21.3525621], [39.6354043, 21.3525241], [39.6243756, 21.3522951], [39.6229026, 21.3522221], [39.6217133, 21.3522117], [39.6180629, 21.3521566]]}}, {"type": "Feature", "properties": {"osm_way_id": 575676482, "name": "Jeddah-Makkah Expressway", "ref": "40"}, "geometry": {"type": "LineString", "coordinates": [[39.7442724, 21.4112303], [39.7458592, 21.4114902], [39.7470664, 21.4117879], [39.7496459, 21.4123342], [39.7502276, 21.4124574], [39.7503331, 21.4124797], [39.7517884, 21.4127968], [39.7530193, 21.4130779], [39.7541959, 21.4133013], [39.7550087, 21.4134598], [39.7554221, 21.4135211], [39.7558834, 21.4135895], [39.7559571, 21.4135985], [39.7566498, 21.4136832], [39.7574471, 21.4137481], [39.7580813, 21.4137998], [39.7585077, 21.4138346], [39.7595682, 21.4138778], [39.7607913, 21.4138922], [39.7642592, 21.4140219], [39.7656139, 21.4140796], [39.7664809, 21.4141228], [39.7672684, 21.4141778], [39.7687541, 21.4144321], [39.770694, 21.4149899], [39.7712227, 21.4151419], [39.7724794, 21.4157194], [39.7744437, 21.4168951], [39.7749896, 21.4172831]]}}, {"type": "Feature", "properties": {"osm_way_id": 832434467, "name": "Jeddah-Makkah Expressway", "ref": "40"}, "geometry": {"type": "LineString", "coordinates": [[39.2580194, 21.4489755], [39.2582675, 21.4489618]]}}, {"type": "Feature", "properties": {"osm_way_id": 1079692628, "name": "\u0637\u0631\u064a\u0642 \u062c\u062f\u0629 - \u0645\u0643\u0629 \u0627\u0644\u0633\u0631\u064a\u0639", "ref": "40"}, "geometry": {"type": "LineString", "coordinates": [[39.4490609, 21.3832141], [39.4475993, 21.3838851]]}}, {"type": "Feature", "properties": {"osm_way_id": 1079692629, "name": "\u0637\u0631\u064a\u0642 \u062c\u062f\u0629 - \u0645\u0643\u0629 \u0627\u0644\u0633\u0631\u064a\u0639", "ref": "40"}, "geometry": {"type": "LineString", "coordinates": [[39.6180629, 21.3521566], [39.6167394, 21.3521408], [39.614842, 21.3521805], [39.6104338, 21.3522098], [39.5800413, 21.3533583], [39.57696, 21.3532544], [39.5733207, 21.3530066], [39.5668315, 21.3524944], [39.5481683, 21.3510213], [39.5471595, 21.3509417], [39.5450754, 21.3507565], [39.5439482, 21.3507413], [39.5430015, 21.3507954], [39.5420674, 21.3509223], [39.5412451, 21.3510639], [39.5401341, 21.3513451], [39.5391015, 21.3516755], [39.5381549, 21.3521142], [39.5372282, 21.3525988], [39.5364153, 21.3531035], [39.5356512, 21.3535981], [39.5348979, 21.3541584], [39.534253, 21.3547792], [39.5336351, 21.355395], [39.5330607, 21.356036], [39.5325784, 21.356682], [39.5320798, 21.3574189], [39.5315053, 21.3584334], [39.5309309, 21.3596346], [39.5305569, 21.360427], [39.5287306, 21.364182], [39.5281128, 21.3654084], [39.5274516, 21.3664531], [39.5269747, 21.3672152], [39.5262702, 21.3680934], [39.5256524, 21.3687999], [39.5251267, 21.3693753], [39.5243301, 21.3701373], [39.5231378, 21.3711517], [39.5191221, 21.3743008], [39.518778, 21.3745645], [39.5165533, 21.376269], [39.5154044, 21.3771219], [39.514456, 21.3777527], [39.5136973, 21.3782069], [39.5127272, 21.3786964], [39.5115946, 21.3791758], [39.5104457, 21.3795997], [39.5098116, 21.3798116], [39.5090475, 21.3800488], [39.508137, 21.3802658], [39.5073675, 21.3804021], [39.50656, 21.3805585], [39.5055249, 21.3806746], [39.5047174, 21.3807301], [39.5036335, 21.3807654], [39.5028423, 21.3807503], [39.5018831, 21.3807049], [39.5008642, 21.3806191], [39.4994443, 21.3804727], [39.4971249, 21.3802255], [39.4873592, 21.3791707], [39.4846115, 21.3788881], [39.4819669, 21.3785904], [39.4802327, 21.3784138], [39.4780107, 21.3781867], [39.4769269, 21.3780555], [39.4756912, 21.3779394], [39.47406, 21.3778486], [39.472781, 21.3778233], [39.4707488, 21.3778132], [39.4684672, 21.3779041], [39.4673617, 21.378005], [39.4666897, 21.3780605], [39.465557, 21.3781665], [39.464419, 21.3783431], [39.4631454, 21.3785349], [39.4618014, 21.3787973], [39.460582, 21.3790395], [39.4592597, 21.3793524], [39.4577586, 21.3797612], [39.4560406, 21.3802961], [39.4551876, 21.3805959], [39.4549351, 21.3806847], [39.4540517, 21.3810076], [39.4530708, 21.3813609], [39.451678, 21.3819412], [39.451316, 21.3821164], [39.4503015, 21.3826073], [39.4490609, 21.3832141]]}}, {"type": "Feature", "properties": {"osm_way_id": 1079692630, "name": "\u0637\u0631\u064a\u0642 \u062c\u062f\u0629 - \u0645\u0643\u0629 \u0627\u0644\u0633\u0631\u064a\u0639", "ref": "40"}, "geometry": {"type": "LineString", "coordinates": [[39.4489332, 21.3829377], [39.4501632, 21.3823598], [39.4503083, 21.3822891], [39.4505195, 21.3821863], [39.4516088, 21.3816557], [39.4529637, 21.3810869], [39.4539314, 21.380749], [39.4541675, 21.3806547], [39.4547782, 21.380411], [39.4554106, 21.3801985], [39.4559516, 21.3800168], [39.4576754, 21.3794873], [39.4591694, 21.3790706], [39.4604879, 21.3787664], [39.4617158, 21.3785073], [39.4630888, 21.3782482], [39.4643348, 21.3780511], [39.4654961, 21.377899], [39.4656058, 21.3778846], [39.4666574, 21.377747], [39.4673408, 21.3776907], [39.4684114, 21.3776174], [39.4707159, 21.3775217], [39.4715327, 21.3775181], [39.4727798, 21.3775125], [39.4740689, 21.37752], [39.475669, 21.3776276], [39.4769228, 21.3777428], [39.4780198, 21.377881], [39.4802551, 21.3781115], [39.4819708, 21.3782881], [39.4846185, 21.378557], [39.487357, 21.3788642], [39.4903911, 21.3791879], [39.4971585, 21.3799098], [39.499463, 21.3801569], [39.5008834, 21.3802863], [39.5018557, 21.3803792], [39.5028592, 21.3804489], [39.5036633, 21.3804547], [39.5046605, 21.3804198], [39.5055331, 21.380356], [39.5065242, 21.3802515], [39.5072783, 21.3801238], [39.5080076, 21.3799613], [39.5088553, 21.3797466], [39.5095471, 21.3795376], [39.510239, 21.3793171], [39.5114668, 21.3788876], [39.5126324, 21.3784], [39.5135299, 21.3779415], [39.5142841, 21.377483], [39.5151754, 21.3768968], [39.5163659, 21.3760436], [39.5188902, 21.3740412], [39.5229229, 21.3709127], [39.524119, 21.3698797], [39.524902, 21.369133], [39.5253843, 21.3686255], [39.5260045, 21.3678846], [39.5266998, 21.3669921], [39.5272072, 21.3662921], [39.5278524, 21.3652303], [39.5284412, 21.3640636], [39.5302453, 21.3603591], [39.5306086, 21.3595365], [39.5312225, 21.3583406], [39.53178, 21.3572905], [39.5320959, 21.3568457], [39.5323062, 21.3565496], [39.5328387, 21.3558553], [39.5333962, 21.3551961], [39.5340602, 21.3545018], [39.5346553, 21.3539242], [39.5354446, 21.3533175], [39.5362026, 21.3528041], [39.5370482, 21.3523082], [39.538038, 21.3518298], [39.5390715, 21.3514214], [39.5401615, 21.3510655], [39.5413079, 21.3507913], [39.5421222, 21.3506396], [39.5431814, 21.3504949], [39.5439325, 21.3504587], [39.5450726, 21.3504587], [39.5471826, 21.3506474], [39.5680338, 21.3522439], [39.570675, 21.3524461], [39.5770698, 21.3529357], [39.5800656, 21.353017], [39.5825529, 21.3529279], [39.6117317, 21.3518823], [39.611847, 21.3518782], [39.6138659, 21.3518172], [39.6170998, 21.3518089]]}}, {"type": "Feature", "properties": {"osm_way_id": 1079692631, "name": "\u0637\u0631\u064a\u0642 \u062c\u062f\u0629 - \u0645\u0643\u0629 \u0627\u0644\u0633\u0631\u064a\u0639", "ref": "40"}, "geometry": {"type": "LineString", "coordinates": [[39.4474652, 21.3836153], [39.447777, 21.3834741], [39.4489332, 21.3829377]]}}, {"type": "Feature", "properties": {"osm_way_id": 1145109946, "name": "\u0637\u0631\u064a\u0642 \u062c\u062f\u0629 - \u0645\u0643\u0629 \u0627\u0644\u0633\u0631\u064a\u0639", "ref": "40"}, "geometry": {"type": "LineString", "coordinates": [[39.2752592, 21.4432602], [39.2764967, 21.4429036], [39.2804459, 21.4417554], [39.2841706, 21.4406708], [39.2877379, 21.4396042], [39.2884424, 21.4394021], [39.2889718, 21.4392503], [39.2907902, 21.4387288], [39.2916908, 21.4384915], [39.2928224, 21.4381502], [39.2935477, 21.4379203], [39.2943765, 21.4376013], [39.2953328, 21.4371636], [39.2961616, 21.4367631], [39.2969825, 21.4363328], [39.2979309, 21.4357393], [39.298611, 21.4351926], [39.2987221, 21.4351018], [39.29933, 21.4346048], [39.3010884, 21.4331414]]}}, {"type": "Feature", "properties": {"osm_way_id": 1145109947, "name": "\u0637\u0631\u064a\u0642 \u062c\u062f\u0629 - \u0645\u0643\u0629 \u0627\u0644\u0633\u0631\u064a\u0639", "ref": "40"}, "geometry": {"type": "LineString", "coordinates": [[39.3012299, 21.4334122], [39.300516, 21.4340635], [39.2998715, 21.4346514], [39.2988288, 21.4354646], [39.2981618, 21.4359717], [39.2971943, 21.4365401], [39.2964052, 21.4369773], [39.2955221, 21.4374407], [39.2945546, 21.4378604], [39.2936997, 21.438184], [39.2928543, 21.438455], [39.2917646, 21.4387611], [39.2909379, 21.4390059], [39.2877985, 21.43988], [39.2806113, 21.4419514], [39.2765818, 21.4431371], [39.2760691, 21.4433021], [39.2752654, 21.4435607]]}}, {"type": "Feature", "properties": {"osm_way_id": 1394220087, "name": "\u0637\u0631\u064a\u0642 \u062c\u062f\u0629 - \u0645\u0643\u0629 \u0627\u0644\u0633\u0631\u064a\u0639", "ref": "40"}, "geometry": {"type": "LineString", "coordinates": [[39.3010884, 21.4331414], [39.3062601, 21.4285181], [39.3086647, 21.4263729], [39.3091474, 21.4259899], [39.3099455, 21.4253565], [39.3112263, 21.4245639], [39.3123769, 21.4240354], [39.3135491, 21.4236288], [39.3145477, 21.4233849], [39.3153198, 21.423268], [39.3160239, 21.4231613], [39.3172194, 21.4230832], [39.3178908, 21.4230394], [39.3206044, 21.4229783], [39.3207569, 21.4229734], [39.3232398, 21.4228931], [39.323687, 21.4228768], [39.3252935, 21.4226125], [39.3268783, 21.4221653], [39.3287452, 21.4213523], [39.3303951, 21.4203968], [39.3324578, 21.4187799], [39.3351926, 21.4166363], [39.3366688, 21.4158638], [39.3388179, 21.4152133], [39.3398817, 21.4150914], [39.3411841, 21.4150914], [39.3416853, 21.4151383], [39.3422696, 21.415193], [39.3427162, 21.4152667], [39.3472976, 21.4159967]]}}, {"type": "Feature", "properties": {"osm_way_id": 1394220088, "name": "\u0637\u0631\u064a\u0642 \u062c\u062f\u0629 - \u0645\u0643\u0629 \u0627\u0644\u0633\u0631\u064a\u0639", "ref": "40"}, "geometry": {"type": "LineString", "coordinates": [[39.3474674, 21.416346], [39.3421366, 21.4155158], [39.3411764, 21.415413], [39.3401712, 21.415413], [39.3392224, 21.4155004], [39.3380858, 21.4157541], [39.3372591, 21.4160252], [39.3366203, 21.4162788], [39.3359158, 21.4166286], [39.3353052, 21.4169784], [39.3343658, 21.4176868], [39.3316228, 21.419873], [39.3306083, 21.4206251], [39.3296125, 21.421281], [39.3286074, 21.4217794], [39.3273862, 21.4222954], [39.3262213, 21.4226452], [39.3256013, 21.4228026], [39.3243707, 21.4230649], [39.3232624, 21.4231648], [39.3229147, 21.4231961], [39.3215432, 21.4232398], [39.3196318, 21.4232922], [39.3178255, 21.4233417], [39.3169402, 21.4233797], [39.316292, 21.4234235], [39.3153526, 21.4235371], [39.3144226, 21.423712], [39.3137087, 21.4239132], [39.3128726, 21.424158], [39.3119708, 21.424569], [39.3111723, 21.42498], [39.3110946, 21.4250277], [39.3103457, 21.4254872], [39.3095002, 21.4260469], [39.3087957, 21.4265978], [39.3079502, 21.4273848], [39.3073026, 21.4279622], [39.3060356, 21.4290917], [39.3035821, 21.4313198], [39.3012806, 21.433366], [39.3012299, 21.4334122]]}}]}